[{"OBJECT_NAME":"STARLINK-32545","OBJECT_ID":"2024-222X","EPOCH":"2025-07-28T08:15:32.263488","MEAN_MOTION":15.27591077,"ECCENTRICITY":7.69e-5,"INCLINATION":42.9964,"RA_OF_ASC_NODE":323.5595,"ARG_OF_PERICENTER":284.3355,"MEAN_ANOMALY":75.7411,"EPHEMERIS_TYPE":0,"CLASSIFICATION_TYPE":"U","NORAD_CAT_ID":62135,"ELEMENT_SET_NO":999,"REV_AT_EPOCH":3848,"BSTAR":0.0010139,"MEAN_MOTION_DOT":0.00027753,"MEAN_MOTION_DDOT":0},{"OBJECT_NAME":"STARLINK-32554","OBJECT_ID":"2024-222Y","EPOCH":"2025-07-28T01:07:05.508192","MEAN_MOTION":15.27568005,"ECCENTRICITY":9.48e-5,"INCLINATION":42.9996,"RA_OF_ASC_NODE":324.7666,"ARG_OF_PERICENTER":270.1221,"MEAN_ANOMALY":89.9522,"EPHEMERIS_TYPE":0,"CLASSIFICATION_TYPE":"U","NORAD_CAT_ID":62136,"ELEMENT_SET_NO":999,"REV_AT_EPOCH":3844,"BSTAR":0.00071891,"MEAN_MOTION_DOT":0.00019566,"MEAN_MOTION_DDOT":0},{"OBJECT_NAME":"STARLINK-32570","OBJECT_ID":"2024-222Z","EPOCH":"2025-07-28T01:16:20.095968","MEAN_MOTION":15.27586256,"ECCENTRICITY":0.0001667,"INCLINATION":43.0012,"RA_OF_ASC_NODE":324.8156,"ARG_OF_PERICENTER":265.4409,"MEAN_ANOMALY":94.6252,"EPHEMERIS_TYPE":0,"CLASSIFICATION_TYPE":"U","NORAD_CAT_ID":62137,"ELEMENT_SET_NO":999,"REV_AT_EPOCH":3853,"BSTAR":0.0011265,"MEAN_MOTION_DOT":0.00030873,"MEAN_MOTION_DDOT":0},{"OBJECT_NAME":"STARLINK-32529","OBJECT_ID":"2024-224A","EPOCH":"2025-07-28T09:19:54.729696","MEAN_MOTION":15.27587427,"ECCENTRICITY":0.0002315,"INCLINATION":43.0016,"RA_OF_ASC_NODE":345.0772,"ARG_OF_PERICENTER":277.2349,"MEAN_ANOMALY":82.824,"EPHEMERIS_TYPE":0,"CLASSIFICATION_TYPE":"U","NORAD_CAT_ID":62139,"ELEMENT_SET_NO":999,"REV_AT_EPOCH":3811,"BSTAR":0.0011485,"MEAN_MOTION_DOT":0.00031485,"MEAN_MOTION_DDOT":0},{"OBJECT_NAME":"STARLINK-32464","OBJECT_ID":"2024-224B","EPOCH":"2025-07-28T09:31:00.704352","MEAN_MOTION":15.27579981,"ECCENTRICITY":3.33e-5,"INCLINATION":43.0006,"RA_OF_ASC_NODE":345.105,"ARG_OF_PERICENTER":139.3819,"MEAN_ANOMALY":220.7058,"EPHEMERIS_TYPE":0,"CLASSIFICATION_TYPE":"U","NORAD_CAT_ID":62140,"ELEMENT_SET_NO":999,"REV_AT_EPOCH":3810,"BSTAR":0.0010318,"MEAN_MOTION_DOT":0.00028239,"MEAN_MOTION_DDOT":0},{"OBJECT_NAME":"STARLINK-32482","OBJECT_ID":"2024-224C","EPOCH":"2025-07-28T10:09:39.117024","MEAN_MOTION":15.27573246,"ECCENTRICITY":0.00013,"INCLINATION":43.0043,"RA_OF_ASC_NODE":344.4497,"ARG_OF_PERICENTER":244.9772,"MEAN_ANOMALY":115.0945,"EPHEMERIS_TYPE":0,"CLASSIFICATION_TYPE":"U","NORAD_CAT_ID":62141,"ELEMENT_SET_NO":999,"REV_AT_EPOCH":3802,"BSTAR":0.00057944,"MEAN_MOTION_DOT":0.00015713,"MEAN_MOTION_DDOT":0},{"OBJECT_NAME":"STARLINK-32454","OBJECT_ID":"2024-224D","EPOCH":"2025-07-28T10:02:55.022496","MEAN_MOTION":15.27576108,"ECCENTRICITY":3.54e-5,"INCLINATION":42.9987,"RA_OF_ASC_NODE":352.1982,"ARG_OF_PERICENTER":278.7182,"MEAN_ANOMALY":81.3629,"EPHEMERIS_TYPE":0,"CLASSIFICATION_TYPE":"U","NORAD_CAT_ID":62142,"ELEMENT_SET_NO":999,"REV_AT_EPOCH":3809,"BSTAR":0.00044565,"MEAN_MOTION_DOT":0.0001202,"MEAN_MOTION_DDOT":0},{"OBJECT_NAME":"STARLINK-32485","OBJECT_ID":"2024-224E","EPOCH":"2025-07-28T09:59:42.311616","MEAN_MOTION":15.27566264,"ECCENTRICITY":4.24e-5,"INCLINATION":43.0008,"RA_OF_ASC_NODE":347.8559,"ARG_OF_PERICENTER":295.8499,"MEAN_ANOMALY":64.2308,"EPHEMERIS_TYPE":0,"CLASSIFICATION_TYPE":"U","NORAD_CAT_ID":62143,"ELEMENT_SET_NO":999,"REV_AT_EPOCH":3771,"BSTAR":0.00063209,"MEAN_MOTION_DOT":0.00017165,"MEAN_MOTION_DDOT":0},{"OBJECT_NAME":"STARLINK-32388","OBJECT_ID":"2024-224F","EPOCH":"2025-07-27T19:49:57.104832","MEAN_MOTION":15.2756223,"ECCENTRICITY":0.0001414,"INCLINATION":42.9997,"RA_OF_ASC_NODE":355.4924,"ARG_OF_PERICENTER":262.9091,"MEAN_ANOMALY":97.16,"EPHEMERIS_TYPE":0,"CLASSIFICATION_TYPE":"U","NORAD_CAT_ID":62144,"ELEMENT_SET_NO":999,"REV_AT_EPOCH":3800,"BSTAR":8.9955e-5,"MEAN_MOTION_DOT":2.213e-5,"MEAN_MOTION_DDOT":0},{"OBJECT_NAME":"STARLINK-32374","OBJECT_ID":"2024-224G","EPOCH":"2025-07-27T15:51:13.400928","MEAN_MOTION":15.2760559,"ECCENTRICITY":0.0002149,"INCLINATION":43.0018,"RA_OF_ASC_NODE":349.0421,"ARG_OF_PERICENTER":278.5781,"MEAN_ANOMALY":81.4827,"EPHEMERIS_TYPE":0,"CLASSIFICATION_TYPE":"U","NORAD_CAT_ID":62145,"ELEMENT_SET_NO":999,"REV_AT_EPOCH":3806,"BSTAR":0.00071781,"MEAN_MOTION_DOT":0.00019559,"MEAN_MOTION_DDOT":0},{"OBJECT_NAME":"STARLINK-32384","OBJECT_ID":"2024-224H","EPOCH":"2025-07-28T09:08:48.213312","MEAN_MOTION":15.27597267,"ECCENTRICITY":8.27e-5,"INCLINATION":42.9986,"RA_OF_ASC_NODE":344.9956,"ARG_OF_PERICENTER":290.0734,"MEAN_ANOMALY":70.0029,"EPHEMERIS_TYPE":0,"CLASSIFICATION_TYPE":"U","NORAD_CAT_ID":62146,"ELEMENT_SET_NO":999,"REV_AT_EPOCH":3817,"BSTAR":0.0012088,"MEAN_MOTION_DOT":0.00033169,"MEAN_MOTION_DDOT":0},{"OBJECT_NAME":"STARLINK-32295","OBJECT_ID":"2024-224J","EPOCH":"2025-07-28T09:23:36.324960","MEAN_MOTION":15.27590682,"ECCENTRICITY":3.97e-5,"INCLINATION":42.9966,"RA_OF_ASC_NODE":345.0639,"ARG_OF_PERICENTER":274.0957,"MEAN_ANOMALY":85.9849,"EPHEMERIS_TYPE":0,"CLASSIFICATION_TYPE":"U","NORAD_CAT_ID":62147,"ELEMENT_SET_NO":999,"REV_AT_EPOCH":3806,"BSTAR":0.0010358,"MEAN_MOTION_DOT":0.0002836,"MEAN_MOTION_DDOT":0},{"OBJECT_NAME":"STARLINK-32479","OBJECT_ID":"2024-224K","EPOCH":"2025-07-28T10:28:09.544512","MEAN_MOTION":15.27592871,"ECCENTRICITY":0.0002567,"INCLINATION":43.008,"RA_OF_ASC_NODE":344.5489,"ARG_OF_PERICENTER":279.8588,"MEAN_ANOMALY":80.1974,"EPHEMERIS_TYPE":0,"CLASSIFICATION_TYPE":"U","NORAD_CAT_ID":62148,"ELEMENT_SET_NO":999,"REV_AT_EPOCH":3811,"BSTAR":0.00072861,"MEAN_MOTION_DOT":0.0001985,"MEAN_MOTION_DDOT":0},{"OBJECT_NAME":"STARLINK-32468","OBJECT_ID":"2024-224L","EPOCH":"2025-07-28T10:26:18.475584","MEAN_MOTION":15.27599153,"ECCENTRICITY":0.0002926,"INCLINATION":43.0056,"RA_OF_ASC_NODE":344.5377,"ARG_OF_PERICENTER":288.4207,"MEAN_ANOMALY":71.6326,"EPHEMERIS_TYPE":0,"CLASSIFICATION_TYPE":"U","NORAD_CAT_ID":62149,"ELEMENT_SET_NO":999,"REV_AT_EPOCH":3802,"BSTAR":0.0010521,"MEAN_MOTION_DOT":0.00028821,"MEAN_MOTION_DDOT":0},{"OBJECT_NAME":"STARLINK-32629","OBJECT_ID":"2024-224M","EPOCH":"2025-07-28T01:56:39.783264","MEAN_MOTION":15.27597765,"ECCENTRICITY":0.0002245,"INCLINATION":43.0061,"RA_OF_ASC_NODE":346.177,"ARG_OF_PERICENTER":277.5154,"MEAN_ANOMALY":82.5442,"EPHEMERIS_TYPE":0,"CLASSIFICATION_TYPE":"U","NORAD_CAT_ID":62150,"ELEMENT_SET_NO":999,"REV_AT_EPOCH":3813,"BSTAR":0.00090945,"MEAN_MOTION_DOT":0.00024862,"MEAN_MOTION_DDOT":0},{"OBJECT_NAME":"STARLINK-32644","OBJECT_ID":"2024-224N","EPOCH":"2025-07-28T09:21:45.387360","MEAN_MOTION":15.27594123,"ECCENTRICITY":4.79e-5,"INCLINATION":42.9958,"RA_OF_ASC_NODE":345.0494,"ARG_OF_PERICENTER":157.9026,"MEAN_ANOMALY":202.1846,"EPHEMERIS_TYPE":0,"CLASSIFICATION_TYPE":"U","NORAD_CAT_ID":62151,"ELEMENT_SET_NO":999,"REV_AT_EPOCH":3817,"BSTAR":0.0010391,"MEAN_MOTION_DOT":0.00028454,"MEAN_MOTION_DDOT":0},{"OBJECT_NAME":"STARLINK-32623","OBJECT_ID":"2024-224P","EPOCH":"2025-07-28T02:23:43.561536","MEAN_MOTION":15.2758811,"ECCENTRICITY":5.76e-5,"INCLINATION":43.0013,"RA_OF_ASC_NODE":349.7819,"ARG_OF_PERICENTER":287.7913,"MEAN_ANOMALY":72.2875,"EPHEMERIS_TYPE":0,"CLASSIFICATION_TYPE":"U","NORAD_CAT_ID":62152,"ELEMENT_SET_NO":999,"REV_AT_EPOCH":3802,"BSTAR":0.00074914,"MEAN_MOTION_DOT":0.00020415,"MEAN_MOTION_DDOT":0}]
