STARLINK-32545          
1 62135U 24222X   25209.34412342  .00027753  00000+0  10139-2 0  9999
2 62135  42.9964 323.5595 0000769 284.3355  75.7411 15.27591077 38489
STARLINK-32554          
1 62136U 24222Y   25209.04659153  .00019566  00000+0  71891-3 0  9996
2 62136  42.9996 324.7666 0000948 270.1221  89.9522 15.27568005 38442
STARLINK-32570          
1 62137U 24222Z   25209.05301037  .00030873  00000+0  11265-2 0  9995
2 62137  43.0012 324.8156 0001667 265.4409  94.6252 15.27586256 38534
STARLINK-32529          
1 62139U 24224A   25209.38882789  .00031485  00000+0  11485-2 0  9997
2 62139  43.0016 345.0772 0002315 277.2349  82.8240 15.27587427 38115
STARLINK-32464          
1 62140U 24224B   25209.39653593  .00028239  00000+0  10318-2 0  9996
2 62140  43.0006 345.1050 0000333 139.3819 220.7058 15.27579981 38109
STARLINK-32482          
1 62141U 24224C   25209.42336941  .00015713  00000+0  57944-3 0  9996
2 62141  43.0043 344.4497 0001300 244.9772 115.0945 15.27573246 38024
STARLINK-32454          
1 62142U 24224D   25209.41869239  .00012020  00000+0  44565-3 0  9990
2 62142  42.9987 352.1982 0000354 278.7182  81.3629 15.27576108 38094
STARLINK-32485          
1 62143U 24224E   25209.41646194  .00017165  00000+0  63209-3 0  9995
2 62143  43.0008 347.8559 0000424 295.8499  64.2308 15.27566264 37715
STARLINK-32388          
1 62144U 24224F   25208.82635538  .00002213  00000+0  89955-4 0  9995
2 62144  42.9997 355.4924 0001414 262.9091  97.1600 15.27562230 38007
STARLINK-32374          
1 62145U 24224G   25208.66057177  .00019559  00000+0  71781-3 0  9993
2 62145  43.0018 349.0421 0002149 278.5781  81.4827 15.27605590 38060
STARLINK-32384          
1 62146U 24224H   25209.38111358  .00033169  00000+0  12088-2 0  9993
2 62146  42.9986 344.9956 0000827 290.0734  70.0029 15.27597267 38179
STARLINK-32295          
1 62147U 24224J   25209.39139265  .00028360  00000+0  10358-2 0  9997
2 62147  42.9966 345.0639 0000397 274.0957  85.9849 15.27590682 38066
STARLINK-32479          
1 62148U 24224K   25209.43622158  .00019850  00000+0  72861-3 0  9993
2 62148  43.0080 344.5489 0002567 279.8588  80.1974 15.27592871 38111
STARLINK-32468          
1 62149U 24224L   25209.43493606  .00028821  00000+0  10521-2 0  9990
2 62149  43.0056 344.5377 0002926 288.4207  71.6326 15.27599153 38020
STARLINK-32629          
1 62150U 24224M   25209.08101601  .00024862  00000+0  90945-3 0  9994
2 62150  43.0061 346.1770 0002245 277.5154  82.5442 15.27597765 38136
STARLINK-32644          
1 62151U 24224N   25209.39010865  .00028454  00000+0  10391-2 0  9997
2 62151  42.9958 345.0494 0000479 157.9026 202.1846 15.27594123 38174
STARLINK-32623          
1 62152U 24224P   25209.09980974  .00020415  00000+0  74914-3 0  9993
2 62152  43.0013 349.7819 0000576 287.7913  72.2875 15.27588110 38027
